NAYIF-1 (EO-88)         
1 42017U 17008BX  20078.75278586  .00001324  00000-0  53934-4 0  9993
2 42017  97.3691 147.6120 0004540 286.1823  73.8916 15.26229339171718
MAX VALIER SAT          
1 42778U 17036P   20078.77756417  .00000782  00000-0  36730-4 0  9996
2 42778  97.3170 134.8719 0011652 349.5584  10.5409 15.22452712151932
RADFXSAT (FOX-1B)       
1 43017U 17073E   20078.04889394  .00000796  00000-0  67422-4 0  9992
2 43017  97.7259 353.7986 0257130 348.4967  11.0436 14.78841183125655
FOX-1D (AO-92)          
1 43137U 18004AC  20078.15493528  .00000890  00000-0  39758-4 0  9998
2 43137  97.4542 149.9066 0009753  26.5200 333.6534 15.23941146121136
ES'HAIL 2               
1 43700U 18090A   20078.10770135  .00000122  00000-0  00000+0 0  9997
2 43700   0.0162 170.6717 0002364 224.9047 205.0831  1.00272366  5031
FOX-1CLIFF (AO-95)      
1 43770U 18099N   20077.74359762  .00000636  00000-0  63397-4 0  9994
2 43770  97.7140 150.6907 0015732 139.3804 220.8594 14.94927843 70216
ITASAT 1                
1 43786U 18099AE  20077.76156122  .00000369  00000-0  38656-4 0  9991
2 43786  97.7156 151.0621 0016428 133.2688 226.9907 14.95277954 70233
JY1SAT (JO-97)          
1 43803U 18099AX  20078.79021937  .00000017  00000-0  67143-5 0  9994
2 43803  97.7110 151.9160 0016339 131.0921 229.1713 14.95439456 70380
PSAT2 (NO-104)          
1 44354U 19036R   20078.80123014  .00010843  00000-0  16064-3 0  9991
2 44354  28.5284 255.2709 0372011  63.9900 299.8514 15.01585791 40163
BRICSAT2 (NO-103)       
1 44355U 19036S   20078.16380979  .00020325  00000-0  29532-3 0  9996
2 44355  28.5284 254.9775 0357315  64.4783 299.2314 15.05253496 40113
JAISAT-1                
1 44419U 19038F   20078.79980218  .00000810  00000-0  49852-4 0  9995
2 44419  97.5280  41.5270 0023372  83.5317 276.8574 15.12622039 38896
DUCHIFAT-3              
1 44854U 19089C   20077.70653981  .00000245  00000-0  26331-4 0  9997
2 44854  36.9678 280.5335 0008051  27.1935 332.9250 14.98994562 14526
HUSKYSAT-1              
1 45119U 19071J   20078.09206148  .00001615  00000-0  61079-4 0  9995
2 45119  51.6437  84.6854 0012952  84.6293 275.6166 15.33228507  7101
